% Rotating position vectors to get it in ECEF frame (at every point in time)
for iter = 1 : length(t) % Start at t = 2 because we already have initial conditions
    g = gamma0 - (15/3600)*t(iter); 
    R3g = [cosd(g), -sind(g), 0;
           sind(g),  cosd(g), 0;
           0      ,  0      , 1 ]; % Rotation around axis 3 by g (GMST angle) degrees
    R_EI = R_IP*R3g;
    r(iter,:) = R_EI*r(iter,:)';
end

% Converting position to lattitude and longitude
longitude2 = zeros(length(r),1);
latitude2 = zeros(length(r),1);
for iter = 1 : length(r)
    %longitude(iter) = (180/PI)*atan(r(iter, 2) / r(iter, 1)); % longtude equation using ECEF coords
    longitude2(iter) = (180/PI)*atan2(r(iter, 2), r(iter, 1));
    latitude2(iter) = (180/PI)*atan(r(iter, 3) / sqrt(r(iter, 1)^2 + r(iter, 2)^2 )); % lattitude equation using ECEF coords
end

figure(2)
hold on
load('topo.mat','topo');
topoplot = [topo(:,181:360),topo(:,1:180)];
contour(-180:179,-90:89,topoplot,[0,0],'black');
grid on
grid minor
plot(longitude2,latitude2,'.','LineWidth',2)
%plot(longitude2(1:10),latitude2(1:10),'.','LineWidth',2)
xlabel("longtitude (degrees)")
ylabel("latitude (degrees)")
title('Ground Path for JUPITER 3 (ECHOSTAR 24)')
hold off

%% MOLNIYA 1-91            
% 1 25485U 98054A   24258.47584262 -.00000047  00000+0  00000+0 0  9999
% 2 25485  64.1500  21.4697 6821298 289.9022  12.2134  2.36441173198427

clear;

MU = 3.986 * (10^5); % km^3 / s^2
PI = 3.141592654;

% Orbit Data from the TLE
n = 2.36441173; % Revolutions (times 360 degrees) per day
e = 0.6821298; % Eccentricity
M0 = 12.2134; % Initial Mean Anomaly
w = 289.9022; % Argument of perigee
i = 64.1500; % Inclination
W = 21.4697; % Right ascension of ascending node
ERA = [11, 04, 53]; % GMST based on the provided website using epoch data

T = 86400/n; % Period of orbit (in seconds per 1 revolution)
a = ((T/(2*PI))^2 * MU)^(1/3);
t = linspace(0,T,500); % Incremental time
t0 = t(1);
M = M0 + n.*(t/86400).*360; % Mean anomaly at every point in the orbit

% Converting M (mean anomaly) to E (eccentric anomaly) and f (true anomaly)
E = zeros(size(M));
for iter = 1 : length(M)
    E(iter) = mean2true(M(iter), e);
end
E0 = E(1);
f0 = 2*atan( sqrt((1+e)/(1-e)) * tan(E(1)/2) ) * (180/PI);

% Getting initial radius and speed using derived equations
p = a*(1-e^2);
r0 = p / (1+e*cosd(f0));
v0 = sqrt(2*MU/r0 - MU/a);

% Calculating Langrange Coefficients using Block 2 (elliptic orbit)
F = zeros(1,length(E));
G = zeros(1,length(E));
for iter = 1 : length(E) 
    F(iter) = 1 - (a/r0).*(1-cosd(E(iter)-E0)); 
    G(iter) = (t(iter)-t0) - sqrt(a^3/MU).*((E(iter)-E0).*(PI/180)-sind(E(iter)-E0));
end

% Getting initial position and velocity vectors in perifocal frame
r = zeros(length(t), 3);
r(1,:) = [r0*cosd(f0), r0*sind(f0), 0]; % e, p, h hat directions
v = zeros(length(t), 3);
v(1,:) = [-sqrt(MU/p)*sind(f0), sqrt(MU/p)*(e+cosd(f0)), 0]; % e, p, h hat directions

% Calculating 1-orbit-worth of future positions
for iter = 2 : length(t) % Start at t = 2 because we already have initial conditions
    r(iter,:) = F(iter)*r(1,:) + G(iter)*v(1,:);
end

% Rotation Matrices
R3W = [cosd(W), -sind(W), 0;
       sind(W),  cosd(W), 0;
       0      ,  0      , 1 ]; % Rotation around axis 3 by W (Right ascension of ascending node) degrees
R1i = [1, 0      ,        0;
       0, cosd(i), -sind(i);
       0, sind(i),  cosd(i) ]; % Rotation around axis 1 by i (inclination) degrees
R3w = [cosd(w), -sind(w), 0;
       sind(w),  cosd(w), 0;
       0      ,  0      , 1 ]; % Rotation around axis 3 by w (argument of perigee) degrees

R_IP = R3w*(R1i*R3W);
ERA_degrees = [ERA(1)*15, ERA(2)*15/60, ERA(3)*15/60/60];
gamma0 = sum(ERA_degrees);

% Rotating position vectors to get it in ECEF frame (at every point in time)
for iter = 1 : length(t) % Start at t = 2 because we already have initial conditions
    g = gamma0 - (15/3600)*t(iter); 
    R3g = [cosd(g), -sind(g), 0;
           sind(g),  cosd(g), 0;
           0      ,  0      , 1 ]; % Rotation around axis 3 by g (GMST angle) degrees
    R_EI = R_IP*R3g;
    r(iter,:) = R_EI*r(iter,:)';
end

% Converting position to lattitude and longitude
longitude3 = zeros(length(r),1);
latitude3 = zeros(length(r),1);
for iter = 1 : length(r)
    %longitude(iter) = (180/PI)*atan(r(iter, 2) / r(iter, 1)); % longtude equation using ECEF coords
    longitude3(iter) = (180/PI)*atan2(r(iter, 2), r(iter, 1));
    latitude3(iter) = (180/PI)*atan(r(iter, 3) / sqrt(r(iter, 1)^2 + r(iter, 2)^2 )); % lattitude equation using ECEF coords
end

figure(3)
hold on
load('topo.mat','topo');
topoplot = [topo(:,181:360),topo(:,1:180)];
contour(-180:179,-90:89,topoplot,[0,0],'black');
grid on
grid minor
plot(longitude3,latitude3,'.','LineWidth',2)
xlabel("longtitude (degrees)")
ylabel("latitude (degrees)")
title('Ground Path for MOLNIYA 1-91 ')
hold off

%% COSMOS 2569 (703K)      
% 1 57517U 23114A   24258.24908306  .00000071  00000+0  00000+0 0  9995
% 2 57517  64.9566  94.2948 0008739 295.2308  64.7601  2.13103887  8606

clear;

MU = 3.986 * (10^5); % km^3 / s^2
PI = 3.141592654;

% Orbit Data from the TLE
n = 2.13103887; % Revolutions (times 360 degrees) per day
e = 0.0008739; % Eccentricity
M0 = 64.7601; % Initial Mean Anomaly
w = 295.2308; % Argument of perigee
i = 64.9566; % Inclination
W = 94.2948; % Right ascension of ascending node
ERA = [05, 37, 27]; % GMST based on the provided website using epoch data

T = 86400/n; % Period of orbit (in seconds per 1 revolution)
a = ((T/(2*PI))^2 * MU)^(1/3);
t = linspace(0,T,500); % Incremental time
t0 = t(1);
M = M0 + n.*(t/86400).*360; % Mean anomaly at every point in the orbit

% Converting M (mean anomaly) to E (eccentric anomaly) and f (true anomaly)
E = zeros(size(M));
for iter = 1 : length(M)
    E(iter) = mean2true(M(iter), e);
end
E0 = E(1);
f0 = 2*atan( sqrt((1+e)/(1-e)) * tan(E(1)/2) ) * (180/PI);

% Getting initial radius and speed using derived equations
p = a*(1-e^2);
r0 = p / (1+e*cosd(f0));
v0 = sqrt(2*MU/r0 - MU/a);

% Calculating Langrange Coefficients using Block 2 (elliptic orbit)
F = zeros(1,length(E));
G = zeros(1,length(E));
for iter = 1 : length(E) 
    F(iter) = 1 - (a/r0).*(1-cosd(E(iter)-E0)); 
    G(iter) = (t(iter)-t0) - sqrt(a^3/MU).*((E(iter)-E0).*(PI/180)-sind(E(iter)-E0));
end

% Getting initial position and velocity vectors in perifocal frame
r = zeros(length(t), 3);
r(1,:) = [r0*cosd(f0), r0*sind(f0), 0]; % e, p, h hat directions
v = zeros(length(t), 3);
v(1,:) = [-sqrt(MU/p)*sind(f0), sqrt(MU/p)*(e+cosd(f0)), 0]; % e, p, h hat directions

% Calculating 1-orbit-worth of future positions
for iter = 2 : length(t) % Start at t = 2 because we already have initial conditions
    r(iter,:) = F(iter)*r(1,:) + G(iter)*v(1,:);
end

% Rotation Matrices
R3W = [cosd(W), -sind(W), 0;
       sind(W),  cosd(W), 0;
       0      ,  0      , 1 ]; % Rotation around axis 3 by W (Right ascension of ascending node) degrees
R1i = [1, 0      ,        0;
       0, cosd(i), -sind(i);
       0, sind(i),  cosd(i) ]; % Rotation around axis 1 by i (inclination) degrees
R3w = [cosd(w), -sind(w), 0;
       sind(w),  cosd(w), 0;
       0      ,  0      , 1 ]; % Rotation around axis 3 by w (argument of perigee) degrees

R_IP = R3w*(R1i*R3W);
ERA_degrees = [ERA(1)*15, ERA(2)*15/60, ERA(3)*15/60/60];
gamma0 = sum(ERA_degrees);

% Rotating position vectors to get it in ECEF frame (at every point in time)
for iter = 1 : length(t) % Start at t = 2 because we already have initial conditions
    g = gamma0 - (15/3600)*t(iter); 
    R3g = [cosd(g), -sind(g), 0;
           sind(g),  cosd(g), 0;
           0      ,  0      , 1 ]; % Rotation around axis 3 by g (GMST angle) degrees
    R_EI = R_IP*R3g;
    r(iter,:) = R_EI*r(iter,:)';
end

% Converting position to lattitude and longitude
longitude4 = zeros(length(r),1);
latitude4 = zeros(length(r),1);
for iter = 1 : length(r)
    %longitude(iter) = (180/PI)*atan(r(iter, 2) / r(iter, 1)); % longtude equation using ECEF coords
    longitude4(iter) = (180/PI)*atan2(r(iter, 2), r(iter, 1));
    latitude4(iter) = (180/PI)*atan(r(iter, 3) / sqrt(r(iter, 1)^2 + r(iter, 2)^2 )); % lattitude equation using ECEF coords
end

figure(4)
hold on
load('topo.mat','topo');
topoplot = [topo(:,181:360),topo(:,1:180)];
contour(-180:179,-90:89,topoplot,[0,0],'black');
grid on
grid minor
plot(longitude4,latitude4,'.','LineWidth',2)
xlabel("longtitude (degrees)")
ylabel("latitude (degrees)")
title('Ground Path for COSMOS 2569 (703K)')
hold off

%% STARLETTE               
% 1 07646U 75010A   24258.93756172 -.00000102  00000+0  34095-4 0  9995
% 2 07646  49.8222 111.7558 0205657 107.9496 254.3932 13.82332614505978

clear;

MU = 3.986 * (10^5); % km^3 / s^2
PI = 3.141592654;

% Orbit Data from the TLE
n = 13.82332614; % Revolutions (times 360 degrees) per day
e = 0.0205657; % Eccentricity
M0 = 254.3932; % Initial Mean Anomaly
w = 107.9496; % Argument of perigee
i = 49.8222; % Inclination
W = 111.7558; % Right ascension of ascending node
ERA = [22, 11, 35]; % GMST based on the provided website using epoch data

T = 86400/n; % Period of orbit (in seconds per 1 revolution)
a = ((T/(2*PI))^2 * MU)^(1/3);
t = linspace(0,T,500); % Incremental time
t0 = t(1);
M = M0 + n.*(t/86400).*360; % Mean anomaly at every point in the orbit

% Converting M (mean anomaly) to E (eccentric anomaly) and f (true anomaly)
E = zeros(size(M));
for iter = 1 : length(M)
    E(iter) = mean2true(M(iter), e);
end
E0 = E(1);
f0 = 2*atan( sqrt((1+e)/(1-e)) * tan(E(1)/2) ) * (180/PI);

% Getting initial radius and speed using derived equations
p = a*(1-e^2);
r0 = p / (1+e*cosd(f0));
v0 = sqrt(2*MU/r0 - MU/a);

% Calculating Langrange Coefficients using Block 2 (elliptic orbit)
F = zeros(1,length(E));
G = zeros(1,length(E));
for iter = 1 : length(E) 
    F(iter) = 1 - (a/r0).*(1-cosd(E(iter)-E0)); 
    G(iter) = (t(iter)-t0) - sqrt(a^3/MU).*((E(iter)-E0).*(PI/180)-sind(E(iter)-E0));
end

